{
  "norad_id": 59697,
  "name": "STARLINK-32099",
  "history": [
    {
      "epoch": "2026-03-28T21:45:19.236960Z",
      "apogee_km": 485.43378927189406,
      "perigee_km": 481.06898566308973,
      "latitude_deg": 6.34384784259116e-05,
      "longitude_deg": 158.50211751324107,
      "height_km": 483.03518946203434,
      "semi_major_axis_km": 6861.388387467491,
      "eccentricity": 0.00031807,
      "inclination_deg": 42.999,
      "raan_deg": 311.1524,
      "arg_perigee_deg": 269.8437,
      "mean_anomaly_deg": 90.2051,
      "mean_motion_rev_day": 15.27512445
    },
    {
      "epoch": "2026-03-29T00:53:37.885920Z",
      "apogee_km": 484.9370260672613,
      "perigee_km": 481.5708276785381,
      "latitude_deg": 3.931758368045508e-06,
      "longitude_deg": 110.55835585922173,
      "height_km": 483.12553194822283,
      "semi_major_axis_km": 6861.390926872899,
      "eccentricity": 0.0002453,
      "inclination_deg": 43.0006,
      "raan_deg": 310.4153,
      "arg_perigee_deg": 266.7967,
      "mean_anomaly_deg": 93.2604,
      "mean_motion_rev_day": 15.27511597
    },
    {
      "epoch": "2026-03-30T00:25:59.043936Z",
      "apogee_km": 484.23009833620745,
      "perigee_km": 482.2390655305626,
      "latitude_deg": 3.546676238400014e-05,
      "longitude_deg": 110.96351056795903,
      "height_km": 482.85239291364127,
      "semi_major_axis_km": 6861.371581933385,
      "eccentricity": 0.00014509,
      "inclination_deg": 43.0037,
      "raan_deg": 304.8753,
      "arg_perigee_deg": 279.2111,
      "mean_anomaly_deg": 80.8577,
      "mean_motion_rev_day": 15.27518057
    },
    {
      "epoch": "2026-03-30T22:24:10.409184Z",
      "apogee_km": 484.18664833906223,
      "perigee_km": 482.266015515188,
      "latitude_deg": -1.8866249812152032e-05,
      "longitude_deg": 135.34542989234077,
      "height_km": 482.8500178377635,
      "semi_major_axis_km": 6861.363331927125,
      "eccentricity": 0.00013996,
      "inclination_deg": 43.0034,
      "raan_deg": 299.7069,
      "arg_perigee_deg": 279.1923,
      "mean_anomaly_deg": 80.877,
      "mean_motion_rev_day": 15.27520812
    },
    {
      "epoch": "2026-03-31T14:05:45.614400Z",
      "apogee_km": 484.3324332504426,
      "perigee_km": 482.1875605492123,
      "latitude_deg": -3.6290315832179244e-05,
      "longitude_deg": -104.38836941807364,
      "height_km": 482.8754025703277,
      "semi_major_axis_km": 6861.396996899827,
      "eccentricity": 0.0001563,
      "inclination_deg": 43.003,
      "raan_deg": 296.0143,
      "arg_perigee_deg": 278.6765,
      "mean_anomaly_deg": 81.3909,
      "mean_motion_rev_day": 15.2750957
    },
    {
      "epoch": "2026-04-01T19:54:44.423712Z",
      "apogee_km": 484.2249202653811,
      "perigee_km": 482.39154209960907,
      "latitude_deg": 8.858226185138389e-06,
      "longitude_deg": 160.12762812256813,
      "height_km": 482.86699536096455,
      "semi_major_axis_km": 6861.445231182494,
      "eccentricity": 0.0001336,
      "inclination_deg": 43.0028,
      "raan_deg": 288.9998,
      "arg_perigee_deg": 283.7705,
      "mean_anomaly_deg": 76.2998,
      "mean_motion_rev_day": 15.27493463
    },
    {
      "epoch": "2026-04-02T19:27:02.793600Z",
      "apogee_km": 485.2341613775652,
      "perigee_km": 481.15304193569955,
      "latitude_deg": -1.1680268228735133e-05,
      "longitude_deg": 160.5426765785593,
      "height_km": 482.8837798247528,
      "semi_major_axis_km": 6861.330601656632,
      "eccentricity": 0.0002974,
      "inclination_deg": 43.0053,
      "raan_deg": 283.4581,
      "arg_perigee_deg": 272.4791,
      "mean_anomaly_deg": 87.572,
      "mean_motion_rev_day": 15.27531742
    },
    {
      "epoch": "2026-04-02T22:35:21.734592Z",
      "apogee_km": 484.0225059054301,
      "perigee_km": 482.38854579632425,
      "latitude_deg": 4.601872812920195e-05,
      "longitude_deg": 112.59631989322172,
      "height_km": 483.0229904438102,
      "semi_major_axis_km": 6861.342525850877,
      "eccentricity": 0.00011907,
      "inclination_deg": 43.0012,
      "raan_deg": 282.7195,
      "arg_perigee_deg": 267.1366,
      "mean_anomaly_deg": 92.935,
      "mean_motion_rev_day": 15.2752776
    }
  ]
}